{
  "type": "FeatureCollection",
  "features": [
    {
      "type": "Feature",
      "properties": {
        "norad_id": 36083,
        "name": "IRIDIUM 33 DEB",
        "group": "iridium-33-debris",
        "lat": 76.75447943022114,
        "lon": -162.9191326911342,
        "alt_km": 747.0420597910534,
        "timestamp": "2025-12-15T19:00:45.744269+00:00",
        "meta_object_name": "IRIDIUM 33 DEB",
        "meta_object_id": "1997-051VQ",
        "meta_epoch": "2025-12-06T21:32:26.892672",
        "meta_mean_motion": 14.43175138,
        "meta_eccentricity": 0.00247889,
        "meta_inclination": 86.3442,
        "meta_ra_of_asc_node": 36.6683,
        "meta_arg_of_pericenter": 243.3344,
        "meta_mean_anomaly": 116.5319,
        "meta_ephemeris_type": 0,
        "meta_classification_type": "U",
        "meta_norad_cat_id": 36083,
        "meta_element_set_no": 999,
        "meta_rev_at_epoch": 85365,
        "meta_bstar": 0.00098432537,
        "meta_mean_motion_dot": 3.337e-05,
        "meta_mean_motion_ddot": 0,
        "tle_line1": "1 36083U 97051VQ  25340.89753348  .00003337  00000+0  98433-3 0  9998",
        "tle_line2": "2 36083  86.3442  36.6683 0024788 243.3344 116.5319 14.43175138853653"
      },
      "geometry": {
        "type": "Point",
        "coordinates": [
          -162.9191326911342,
          76.75447943022114
        ]
      }
    },
    {
      "type": "Feature",
      "properties": {
        "norad_id": 36390,
        "name": "IRIDIUM 33 DEB",
        "group": "iridium-33-debris",
        "lat": -74.95289635104511,
        "lon": 131.95656014588877,
        "alt_km": 662.020704824974,
        "timestamp": "2025-12-15T19:00:45.744279+00:00",
        "meta_object_name": "IRIDIUM 33 DEB",
        "meta_object_id": "1997-051VU",
        "meta_epoch": "2025-12-10T04:13:18.491808",
        "meta_mean_motion": 14.73548967,
        "meta_eccentricity": 0.00303441,
        "meta_inclination": 86.2912,
        "meta_ra_of_asc_node": 300.5678,
        "meta_arg_of_pericenter": 170.4809,
        "meta_mean_anomaly": 189.6991,
        "meta_ephemeris_type": 0,
        "meta_classification_type": "U",
        "meta_norad_cat_id": 36390,
        "meta_element_set_no": 999,
        "meta_rev_at_epoch": 66224,
        "meta_bstar": 0.0016206136,
        "meta_mean_motion_dot": 0.00010646,
        "meta_mean_motion_ddot": 0,
        "tle_line1": "1 36390U 97051VU  25344.17590847  .00010646  00000+0  16206-2 0  9995",
        "tle_line2": "2 36390  86.2912 300.5678 0030344 170.4809 189.6991 14.73548967662240"
      },
      "geometry": {
        "type": "Point",
        "coordinates": [
          131.95656014588877,
          -74.95289635104511
        ]
      }
    },
    {
      "type": "Feature",
      "properties": {
        "norad_id": 36483,
        "name": "IRIDIUM 33 DEB",
        "group": "iridium-33-debris",
        "lat": -64.81866988381424,
        "lon": 43.4440282752514,
        "alt_km": 754.6224120284851,
        "timestamp": "2025-12-15T19:00:45.744289+00:00",
        "meta_object_name": "IRIDIUM 33 DEB",
        "meta_object_id": "1997-051VZ",
        "meta_epoch": "2025-12-13T10:50:21.003936",
        "meta_mean_motion": 14.45815478,
        "meta_eccentricity": 0.00112504,
        "meta_inclination": 86.3797,
        "meta_ra_of_asc_node": 52.1844,
        "meta_arg_of_pericenter": 123.854,
        "meta_mean_anomaly": 236.3734,
        "meta_ephemeris_type": 0,
        "meta_classification_type": "U",
        "meta_norad_cat_id": 36483,
        "meta_element_set_no": 999,
        "meta_rev_at_epoch": 65156,
        "meta_bstar": 0.00081590403,
        "meta_mean_motion_dot": 2.915e-05,
        "meta_mean_motion_ddot": 0,
        "tle_line1": "1 36483U 97051VZ  25347.45163199  .00002915  00000+0  81590-3 0  9997",
        "tle_line2": "2 36483  86.3797  52.1844 0011250 123.8540 236.3734 14.45815478651560"
      },
      "geometry": {
        "type": "Point",
        "coordinates": [
          43.4440282752514,
          -64.81866988381424
        ]
      }
    },
    {
      "type": "Feature",
      "properties": {
        "norad_id": 36490,
        "name": "IRIDIUM 33 DEB",
        "group": "iridium-33-debris",
        "lat": 14.11598687758892,
        "lon": -171.82897060243258,
        "alt_km": 642.2764452164556,
        "timestamp": "2025-12-15T19:00:45.744300+00:00",
        "meta_object_name": "IRIDIUM 33 DEB",
        "meta_object_id": "1997-051WG",
        "meta_epoch": "2025-12-13T19:05:14.805600",
        "meta_mean_motion": 14.76226101,
        "meta_eccentricity": 0.0005505,
        "meta_inclination": 86.3659,
        "meta_ra_of_asc_node": 9.9872,
        "meta_arg_of_pericenter": 81.5589,
        "meta_mean_anomaly": 278.6254,
        "meta_ephemeris_type": 0,
        "meta_classification_type": "U",
        "meta_norad_cat_id": 36490,
        "meta_element_set_no": 999,
        "meta_rev_at_epoch": 86500,
        "meta_bstar": 0.0018329982,
        "meta_mean_motion_dot": 0.00012721,
        "meta_mean_motion_ddot": 0,
        "tle_line1": "1 36490U 97051WG  25347.79531025  .00012721  00000+0  18330-2 0  9996",
        "tle_line2": "2 36490  86.3659   9.9872 0005505  81.5589 278.6254 14.76226101865000"
      },
      "geometry": {
        "type": "Point",
        "coordinates": [
          -171.82897060243258,
          14.11598687758892
        ]
      }
    },
    {
      "type": "Feature",
      "properties": {
        "norad_id": 36493,
        "name": "IRIDIUM 33 DEB",
        "group": "iridium-33-debris",
        "lat": -32.19381097915902,
        "lon": 8.025818146284017,
        "alt_km": 676.0363250338214,
        "timestamp": "2025-12-15T19:00:45.744310+00:00",
        "meta_object_name": "IRIDIUM 33 DEB",
        "meta_object_id": "1997-051WK",
        "meta_epoch": "2025-12-13T19:37:43.307040",
        "meta_mean_motion": 14.65251976,
        "meta_eccentricity": 0.00100634,
        "meta_inclination": 86.3576,
        "meta_ra_of_asc_node": 11.2011,
        "meta_arg_of_pericenter": 1.6705,
        "meta_mean_anomaly": 358.4539,
        "meta_ephemeris_type": 0,
        "meta_classification_type": "U",
        "meta_norad_cat_id": 36493,
        "meta_element_set_no": 999,
        "meta_rev_at_epoch": 74534,
        "meta_bstar": 0.0014782162,
        "meta_mean_motion_dot": 7.993e-05,
        "meta_mean_motion_ddot": 0,
        "tle_line1": "1 36493U 97051WK  25347.81786235  .00007993  00000+0  14782-2 0  9999",
        "tle_line2": "2 36493  86.3576  11.2011 0010063   1.6705 358.4539 14.65251976745343"
      },
      "geometry": {
        "type": "Point",
        "coordinates": [
          8.025818146284017,
          -32.19381097915902
        ]
      }
    },
    {
      "type": "Feature",
      "properties": {
        "norad_id": 37548,
        "name": "IRIDIUM 33 DEB",
        "group": "iridium-33-debris",
        "lat": 1.988255726835756,
        "lon": 42.16575954046099,
        "alt_km": 742.288426258091,
        "timestamp": "2025-12-15T19:00:45.744321+00:00",
        "meta_object_name": "IRIDIUM 33 DEB",
        "meta_object_id": "1997-051XH",
        "meta_epoch": "2025-12-13T10:44:34.243584",
        "meta_mean_motion": 14.51312722,
        "meta_eccentricity": 0.00257089,
        "meta_inclination": 86.3511,
        "meta_ra_of_asc_node": 43.059,
        "meta_arg_of_pericenter": 186.1845,
        "meta_mean_anomaly": 173.9047,
        "meta_ephemeris_type": 0,
        "meta_classification_type": "U",
        "meta_norad_cat_id": 37548,
        "meta_element_set_no": 999,
        "meta_rev_at_epoch": 65542,
        "meta_bstar": 0.0016301085,
        "meta_mean_motion_dot": 6.537e-05,
        "meta_mean_motion_ddot": 0,
        "tle_line1": "1 37548U 97051XH  25347.44761856  .00006537  00000+0  16301-2 0  9994",
        "tle_line2": "2 37548  86.3511  43.0590 0025708 186.1845 173.9047 14.51312722655420"
      },
      "geometry": {
        "type": "Point",
        "coordinates": [
          42.16575954046099,
          1.988255726835756
        ]
      }
    },
    {
      "type": "Feature",
      "properties": {
        "norad_id": 37550,
        "name": "IRIDIUM 33 DEB",
        "group": "iridium-33-debris",
        "lat": -32.83375494772896,
        "lon": -155.1351910430749,
        "alt_km": 677.4173912764663,
        "timestamp": "2025-12-15T19:00:45.744331+00:00",
        "meta_object_name": "IRIDIUM 33 DEB",
        "meta_object_id": "1997-051XK",
        "meta_epoch": "2025-12-13T08:45:33.524640",
        "meta_mean_motion": 14.67228096,
        "meta_eccentricity": 0.00055701,
        "meta_inclination": 86.378,
        "meta_ra_of_asc_node": 23.5976,
        "meta_arg_of_pericenter": 109.645,
        "meta_mean_anomaly": 250.5366,
        "meta_ephemeris_type": 0,
        "meta_classification_type": "U",
        "meta_norad_cat_id": 37550,
        "meta_element_set_no": 999,
        "meta_rev_at_epoch": 86342,
        "meta_bstar": 0.0021536322,
        "meta_mean_motion_dot": 0.00012161,
        "meta_mean_motion_ddot": 0,
        "tle_line1": "1 37550U 97051XK  25347.36497135  .00012161  00000+0  21536-2 0  9990",
        "tle_line2": "2 37550  86.3780  23.5976 0005570 109.6450 250.5366 14.67228096863423"
      },
      "geometry": {
        "type": "Point",
        "coordinates": [
          -155.1351910430749,
          -32.83375494772896
        ]
      }
    }
  ]
}